NORAD_CAT_ID,OBJECT_NAME,OBJECT_TYPE,EPOCH,MEAN_MOTION,ECCENTRICITY,INCLINATION,RA_OF_ASC_NODE,ARG_OF_PERICENTER,MEAN_ANOMALY,BSTAR,MEAN_MOTION_DOT,MEAN_MOTION_DDOT,TLE_LINE0,TLE_LINE1,TLE_LINE2,SEMIMAJOR_AXIS,PERIOD,APOGEE,PERIGEE,DECAYED
54177.0,STARLINK-5186,PAYLOAD,2023-01-29 10:26:08,15.08846987,0.0001421,53.2173,60.4051,112.8934,247.2208,9.7426e-06,-1.33e-06,0.0,0 STARLINK-5186,1 54177U 22141W   23029.43482476 -.00000133  00000-0  97426-5 0  9999,2 54177  53.2173  60.4051 0001421 112.8934 247.2208 15.08846987 14476,6917.859,95.437,540.707,538.741,0.0
54177.0,STARLINK-5186,PAYLOAD,2023-01-29 18:23:04,15.08842047,0.0001291,53.2176,58.9171,83.8705,276.2434,-5.8464e-05,-1.218e-05,0.0,0 STARLINK-5186,1 54177U 22141W   23029.76602904 -.00001218  00000-0 -58464-4 0  9999,2 54177  53.2176  58.9171 0001291  83.8705 276.2434 15.08842047 14524,6917.874,95.437,540.632,538.846,0.0
54177.0,STARLINK-5186,PAYLOAD,2023-01-30 02:20:01,15.08827826,0.0001277,53.2169,57.4319,101.0517,259.0619,2.0466e-05,3.8e-07,0.0,0 STARLINK-5186,1 54177U 22141W   23030.09723793  .00000038  00000-0  20466-4 0  9995,2 54177  53.2169  57.4319 0001277 101.0517 259.0619 15.08827826 14579,6917.918,95.438,540.666,538.899,0.0
54177.0,STARLINK-5186,PAYLOAD,2023-01-30 11:52:19,15.08836483,0.000112,53.2176,55.6493,86.7012,273.4108,2.8507e-05,1.66e-06,0.0,0 STARLINK-5186,1 54177U 22141W   23030.49467456  .00000166  00000-0  28507-4 0  9996,2 54177  53.2176  55.6493 0001120  86.7012 273.4108 15.08836483 14635,6917.891,95.438,540.531,538.981,0.0
54177.0,STARLINK-5186,PAYLOAD,2023-01-30 21:24:39,15.08833174,0.0001076,53.2171,53.8652,85.2085,274.903,-6.504e-06,-3.91e-06,0.0,0 STARLINK-5186,1 54177U 22141W   23030.89211883 -.00000391  00000-0 -65040-5 0  9997,2 54177  53.2171  53.8652 0001076  85.2085 274.9030 15.08833174 14691,6917.901,95.438,540.511,539.022,0.0
54177.0,STARLINK-5186,PAYLOAD,2023-01-31 02:10:48,15.08837707,0.0001132,53.2171,52.9729,90.7881,269.3241,-4.1613e-05,-9.5e-06,0.0,0 STARLINK-5186,1 54177U 22141W   23031.09083826 -.00000950  00000-0 -41613-4 0  9994,2 54177  53.2171  52.9729 0001132  90.7881 269.3241 15.08837707 14726,6917.887,95.438,540.536,538.969,0.0
54177.0,STARLINK-5186,PAYLOAD,2023-01-31 10:07:43,15.08844746,0.0001122,53.2171,51.4862,89.9188,270.1933,1.9691e-05,2.6e-07,0.0,0 STARLINK-5186,1 54177U 22141W   23031.42203150  .00000026  00000-0  19691-4 0  9998,2 54177  53.2171  51.4862 0001122  89.9188 270.1933 15.08844746 14771,6917.866,95.437,540.507,538.955,0.0
54177.0,STARLINK-5186,PAYLOAD,2023-01-31 21:15:25,15.08839303,0.0001104,53.2171,49.4048,85.8378,274.2741,-9.0047e-05,-1.721e-05,0.0,0 STARLINK-5186,1 54177U 22141W   23031.88571744 -.00001721  00000-0 -90047-4 0  9994,2 54177  53.2171  49.4048 0001104  85.8378 274.2741 15.08839303 14843,6917.883,95.438,540.511,538.984,0.0
54177.0,STARLINK-5186,PAYLOAD,2023-02-01 02:01:35,15.08831273,0.0001073,53.217,48.5127,88.006,272.1055,3.3484e-05,2.45e-06,0.0,0 STARLINK-5186,1 54177U 22141W   23032.08443978  .00000245  00000-0  33484-4 0  9994,2 54177  53.2170  48.5127 0001073  88.0060 272.1055 15.08831273 14874,6917.907,95.438,540.514,539.03,0.0
54177.0,STARLINK-5186,PAYLOAD,2023-02-01 06:47:44,15.08838845,0.0001304,53.2173,47.62,103.111,257.0028,2.5154e-05,1.12e-06,0.0,0 STARLINK-5186,1 54177U 22141W   23032.28315576  .00000112  00000-0  25154-4 0  9996,2 54177  53.2173  47.6200 0001304 103.1110 257.0028 15.08838845 14909,6917.884,95.438,540.651,538.847,0.0
54177.0,STARLINK-5186,PAYLOAD,2023-02-01 22:41:36,15.08832071,0.0001139,53.2171,44.6464,86.8375,273.2748,5.1563e-06,-2.06e-06,0.0,0 STARLINK-5186,1 54177U 22141W   23032.94556195 -.00000206  00000-0  51563-5 0  9992,2 54177  53.2171  44.6464 0001139  86.8375 273.2748 15.08832071 15008,6917.905,95.438,540.558,538.982,0.0
54177.0,STARLINK-5186,PAYLOAD,2023-02-02 08:13:54,15.08840738,0.000116,53.2172,42.862,86.3041,273.8084,4.7027e-05,4.61e-06,0.0,0 STARLINK-5186,1 54177U 22141W   23033.34299586  .00000461  00000-0  47027-4 0  9996,2 54177  53.2172  42.8620 0001160  86.3041 273.8084 15.08840738 15066,6917.878,95.438,540.546,538.941,0.0
54177.0,STARLINK-5186,PAYLOAD,2023-02-03 06:29:18,15.08842604,0.00012,53.2174,38.6989,82.5644,277.5484,0.00011497,1.542e-05,0.0,0 STARLINK-5186,1 54177U 22141W   23034.27035157  .00001542  00000-0  11497-3 0  9993,2 54177  53.2174  38.6989 0001200  82.5644 277.5484 15.08842604 15206,6917.872,95.437,540.568,538.907,0.0
54177.0,STARLINK-5186,PAYLOAD,2023-02-04 03:09:19,15.08834945,0.0001293,53.2176,34.8338,86.3463,273.7677,3.2754e-05,2.33e-06,0.0,0 STARLINK-5186,1 54177U 22141W   23035.13147956  .00000233  00000-0  32754-4 0  9996,2 54177  53.2176  34.8338 0001293  86.3463 273.7677 15.08834945 15332,6917.896,95.438,540.655,538.866,0.0
54177.0,STARLINK-5186,PAYLOAD,2023-02-04 09:30:51,15.0884196,0.0001331,53.2174,33.6421,89.7569,270.3576,3.7222e-05,3.05e-06,0.0,0 STARLINK-5186,1 54177U 22141W   23035.39643451  .00000305  00000-0  37222-4 0  9990,2 54177  53.2174  33.6421 0001331  89.7569 270.3576 15.08841960 15377,6917.874,95.437,540.66,538.819,0.0
54177.0,STARLINK-5186,PAYLOAD,2023-02-05 03:00:07,15.0883485,0.0001608,53.2184,30.3682,129.4969,230.6166,-4.604e-05,-1.021e-05,0.0,0 STARLINK-5186,1 54177U 22141W   23036.12508133 -.00001021  00000-0 -46040-4 0  9995,2 54177  53.2184  30.3682 0001608 129.4969 230.6166 15.08834850 15480,6917.896,95.438,540.874,538.649,0.0
54177.0,STARLINK-5186,PAYLOAD,2023-02-05 06:10:53,15.08839056,0.0001211,53.2174,29.774,96.9866,263.1263,-1.8927e-05,-5.89e-06,0.0,0 STARLINK-5186,1 54177U 22141W   23036.25755944 -.00000589  00000-0 -18927-4 0  9994,2 54177  53.2174  29.7740 0001211  96.9866 263.1263 15.08839056 15505,6917.883,95.438,540.586,538.911,0.0
54177.0,STARLINK-5186,PAYLOAD,2023-02-06 02:50:53,15.08840853,0.0001227,53.2174,25.9099,83.2709,276.8422,5.3569e-05,5.65e-06,0.0,0 STARLINK-5186,1 54177U 22141W   23037.11867753  .00000565  00000-0  53569-4 0  9995,2 54177  53.2174  25.9099 0001227  83.2709 276.8422 15.08840853 15631,6917.878,95.438,540.592,538.894,0.0
54177.0,STARLINK-5186,PAYLOAD,2023-02-06 04:26:16,15.08841326,0.0001206,53.2173,25.6065,92.123,267.9901,7.7522e-05,9.46e-06,0.0,0 STARLINK-5186,1 54177U 22141W   23037.18491569  .00000946  00000-0  77522-4 0  9998,2 54177  53.2173  25.6065 0001206  92.1230 267.9901 15.08841326 15645,6917.876,95.437,540.576,538.907,0.0
54177.0,STARLINK-5186,PAYLOAD,2023-02-07 09:03:12,15.08849535,0.0001187,53.2176,20.2621,86.6116,273.5012,0.00012794,1.749e-05,0.0,0 STARLINK-5186,1 54177U 22141W   23038.37722968  .00001749  00000-0  12794-3 0  9991,2 54177  53.2176  20.2621 0001187  86.6116 273.5012 15.08849535 15822,6917.851,95.437,540.537,538.895,0.0
54177.0,STARLINK-5186,PAYLOAD,2023-02-08 04:07:51,15.08839359,0.0001242,53.2177,16.6878,81.1579,278.9554,-3.0319e-05,-7.7e-06,0.0,0 STARLINK-5186,1 54177U 22141W   23039.17212178 -.00000770  00000-0 -30319-4 0  9996,2 54177  53.2177  16.6878 0001242  81.1579 278.9554 15.08839359 15947,6917.882,95.438,540.607,538.888,0.0
54177.0,STARLINK-5186,PAYLOAD,2023-02-08 08:53:59,15.08853391,0.0001023,53.2176,15.8022,92.4199,267.691,9.7432e-05,1.264e-05,0.0,0 STARLINK-5186,1 54177U 22141W   23039.37082894  .00001264  00000-0  97432-4 0  9994,2 54177  53.2176  15.8022 0001023  92.4199 267.6910 15.08853391 15974,6917.839,95.437,540.412,538.997,0.0
54177.0,STARLINK-5186,PAYLOAD,2023-02-09 03:58:38,15.08836673,0.0001168,53.218,12.2312,98.8441,261.2684,-4.1787e-05,-9.53e-06,0.0,0 STARLINK-5186,1 54177U 22141W   23040.16572478 -.00000953  00000-0 -41787-4 0  9993,2 54177  53.2180  12.2312 0001168  98.8441 261.2684 15.08836673 16098,6917.891,95.438,540.564,538.948,0.0
54177.0,STARLINK-5186,PAYLOAD,2023-02-09 07:09:24,15.0883786,0.0001187,53.2185,11.6364,92.1974,267.9154,-1.4041e-05,-5.11e-06,0.0,0 STARLINK-5186,1 54177U 22141W   23040.29820385 -.00000511  00000-0 -14041-4 0  9993,2 54177  53.2185  11.6364 0001187  92.1974 267.9154 15.08837860 16119,6917.887,95.438,540.573,538.931,0.0
54177.0,STARLINK-5186,PAYLOAD,2023-02-10 03:49:25,15.08843458,6.34e-05,53.2182,7.7733,101.5115,258.5948,-4.5883e-05,-1.018e-05,0.0,0 STARLINK-5186,1 54177U 22141W   23041.15932144 -.00001018  00000-0 -45883-4 0  9997,2 54177  53.2182   7.7733 0000634 101.5115 258.5948 15.08843458 16241,6917.87,95.437,540.173,539.296,0.0
54177.0,STARLINK-5186,PAYLOAD,2023-02-10 05:24:47,15.0886285,8.88e-05,53.2184,7.4761,99.0795,261.0298,0.00011805,1.593e-05,0.0,0 STARLINK-5186,1 54177U 22141W   23041.22554491  .00001593  00000-0  11805-3 0  9992,2 54177  53.2184   7.4761 0000888  99.0795 261.0298 15.08862850 16252,6917.811,95.436,540.29,539.061,0.0
54177.0,STARLINK-5186,PAYLOAD,2023-02-11 03:40:12,15.08841716,0.0001121,53.2189,3.3129,78.5741,281.5377,3.7366e-05,3.07e-06,0.0,0 STARLINK-5186,1 54177U 22141W   23042.15292221  .00000307  00000-0  37366-4 0  9998,2 54177  53.2189   3.3129 0001121  78.5741 281.5377 15.08841716 16392,6917.875,95.437,540.516,538.965,0.0
54177.0,STARLINK-5186,PAYLOAD,2023-02-11 21:09:27,15.08837066,9.07e-05,53.2189,0.0421,93.6765,266.4331,6.1614e-05,6.93e-06,0.0,0 STARLINK-5186,1 54177U 22141W   23042.88156331  .00000693  00000-0  61614-4 0  9990,2 54177  53.2189   0.0421 0000907  93.6765 266.4331 15.08837066 16504,6917.889,95.438,540.382,539.127,0.0
54177.0,STARLINK-5186,PAYLOAD,2023-02-12 06:41:45,15.08856607,0.000147,53.2176,358.259,80.901,279.2148,-1.6196e-05,-5.46e-06,0.0,0 STARLINK-5186,1 54177U 22141W   23043.27899431 -.00000546  00000-0 -16196-4 0  9993,2 54177  53.2176 358.2590 0001470  80.9010 279.2148 15.08856607 16569,6917.83,95.437,540.712,538.678,0.0
54177.0,STARLINK-5186,PAYLOAD,2023-02-13 03:21:47,15.08838435,0.0001143,53.2195,354.3929,87.2,272.9123,-0.00010447,-1.95e-05,0.0,0 STARLINK-5186,1 54177U 22141W   23044.14012985 -.00001950  00000-0 -10447-3 0  9993,2 54177  53.2195 354.3929 0001143  87.2000 272.9123 15.08838435 16695,6917.885,95.438,540.541,538.959,0.0
